[{"OBJECT_NAME":"YAOGAN-35 05A","OBJECT_ID":"2022-109A","EPOCH":"2026-03-07T14:04:58.560960","MEAN_MOTION":15.22860926,"ECCENTRICITY":0.0007542,"INCLINATION":35.0054,"RA_OF_ASC_NODE":257.8287,"ARG_OF_PERICENTER":166.4261,"MEAN_ANOMALY":193.6657,"EPHEMERIS_TYPE":0,"CLASSIFICATION_TYPE":"U","NORAD_CAT_ID":53760,"ELEMENT_SET_NO":999,"REV_AT_EPOCH":19511,"BSTAR":1.0143e-5,"MEAN_MOTION_DOT":2.06e-6,"MEAN_MOTION_DDOT":0},{"OBJECT_NAME":"STARLINK-36097","OBJECT_ID":"2025-298S","EPOCH":"2026-03-09T21:42:20.478816","MEAN_MOTION":15.26086669,"ECCENTRICITY":0.00039178,"INCLINATION":70.003,"RA_OF_ASC_NODE":12.9557,"ARG_OF_PERICENTER":200.4809,"MEAN_ANOMALY":159.6208,"EPHEMERIS_TYPE":0,"CLASSIFICATION_TYPE":"U","NORAD_CAT_ID":67091,"ELEMENT_SET_NO":999,"REV_AT_EPOCH":1327,"BSTAR":0.0027728212,"MEAN_MOTION_DOT":0.00072258,"MEAN_MOTION_DDOT":0}]
